norad_id,name,regime,epoch,line1,line2,inclination,eccentricity,mean_motion,raan,arg_pericenter,mean_anomaly
40349,O3B FM11,MEO,23349.67277458,1 40349U 14083B   23349.67277458 -.00000010  00000-0  00000-0 0    19,2 40349   0.0455   9.3079 0002928 241.2021 109.4611  5.00115487164168,0.0455,0.0002928,5.00115487,9.3079,241.2021,109.4611
40349,O3B FM11,MEO,23350.47233657,1 40349U 14083B   23350.47233657 -.00000011  00000-0  00000-0 0    13,2 40349   0.0455   9.3134 0002924 241.8515 108.8055  5.00115479164199,0.0455,0.0002924,5.00115479,9.3134,241.8515,108.8055
40349,O3B FM11,MEO,23350.67222694,1 40349U 14083B   23350.67222694 -.00000011  00000-0  00000-0 0    14,2 40349   0.0455   9.3083 0002924 242.3407 108.3211  5.00115484164216,0.0455,0.0002924,5.00115484,9.3083,242.3407,108.3211
40349,O3B FM11,MEO,23351.07200812,1 40349U 14083B   23351.07200812 -.00000012  00000-0  00000-0 0    18,2 40349   0.0455   9.3848 0002921 242.7343 107.8508  5.00115466164230,0.0455,0.0002921,5.00115466,9.3848,242.7343,107.8508
40349,O3B FM11,MEO,23351.67167965,1 40349U 14083B   23351.67167965 -.00000012  00000-0  00000-0 0    15,2 40349   0.0455   9.3995 0002919 243.3157 107.2542  5.00115463164262,0.0455,0.0002919,5.00115463,9.3995,243.3157,107.2542
40349,O3B FM11,MEO,23352.27135108,1 40349U 14083B   23352.27135108 -.00000013  00000-0  00000-0 0    17,2 40349   0.0455   9.4165 0002916 243.8586 106.6940  5.00115474164290,0.0455,0.0002916,5.00115474,9.4165,243.8586,106.694
40349,O3B FM11,MEO,23352.67113212,1 40349U 14083B   23352.67113212 -.00000013  00000-0  00000-0 0    13,2 40349   0.0455   9.4264 0002915 244.2363 106.3062  5.00115476164314,0.0455,0.0002915,5.00115476,9.4264,244.2363,106.3062
40349,O3B FM11,MEO,23353.07091327,1 40349U 14083B   23353.07091327 -.00000013  00000-0  00000-0 0    10,2 40349   0.0455   9.4332 0002914 244.5914 105.9442  5.00115471164338,0.0455,0.0002914,5.00115471,9.4332,244.5914,105.9442
40349,O3B FM11,MEO,23354.07036598,1 40349U 14083B   23354.07036598 -.00000014  00000-0  00000+0 0  7219,2 40349   0.0456   9.3246 0002911 245.6552 104.9887  5.00115477164539,0.0456,0.0002911,5.00115477,9.3246,245.6552,104.9887
40349,O3B FM11,MEO,23354.47014716,1 40349U 14083B   23354.47014716 -.00000014  00000-0  00000-0 0    13,2 40349   0.0456   9.3328 0002909 246.0346 104.6010  5.00115474164399,0.0456,0.0002909,5.00115474,9.3328,246.0346,104.601
40349,O3B FM11,MEO,23354.86992818,1 40349U 14083B   23354.86992818 -.00000014  00000-0  00000-0 0    14,2 40349   0.0456   9.3332 0002908 246.2624 104.3727  5.00115484164410,0.0456,0.0002908,5.00115484,9.3332,246.2624,104.3727
40349,O3B FM11,MEO,23355.46960009,1 40349U 14083B   23355.46960009 -.00000015  00000-0  00000-0 0    19,2 40349   0.0456   9.3356 0002906 246.8235 103.8091  5.00115470164444,0.0456,0.0002906,5.0011547,9.3356,246.8235,103.8091
40349,O3B FM11,MEO,23355.66949056,1 40349U 14083B   23355.66949056 -.00000015  00000-0  00000-0 0    10,2 40349   0.0456   9.3418 0002905 247.0165 103.6098  5.00115478164451,0.0456,0.0002905,5.00115478,9.3418,247.0165,103.6098
40349,O3B FM11,MEO,23356.46905270,1 40349U 14083B   23356.46905270 -.00000016  00000-0  00000-0 0    10,2 40349   0.0456   9.3688 0002903 247.6156 102.9836  5.00115490164494,0.0456,0.0002903,5.0011549,9.3688,247.6156,102.9836
40349,O3B FM11,MEO,23356.86883346,1 40349U 14083B   23356.86883346 -.00000016  00000-0  00000-0 0    13,2 40349   0.0457   9.3642 0002901 248.0464 102.5572  5.00115519164518,0.0457,0.0002901,5.00115519,9.3642,248.0464,102.5572
40349,O3B FM11,MEO,23357.06872409,1 40349U 14083B   23357.06872409 -.00000017  00000-0  00000-0 0    15,2 40349   0.0457   9.3730 0002901 248.2225 102.3722  5.00115514164524,0.0457,0.0002901,5.00115514,9.373,248.2225,102.3722
40349,O3B FM11,MEO,23357.86828633,1 40349U 14083B   23357.86828633 -.00000018  00000-0  00000-0 0    14,2 40349   0.0457   9.3816 0002897 248.9807 101.6051  5.00115515164568,0.0457,0.0002897,5.00115515,9.3816,248.9807,101.6051
40349,O3B FM11,MEO,23358.66784845,1 40349U 14083B   23358.66784845 -.00000020  00000-0  00000-0 0    12,2 40349   0.0457   9.3942 0002895 249.7225 100.8503  5.00115522164605,0.0457,0.0002895,5.00115522,9.3942,249.7225,100.8503
40349,O3B FM11,MEO,23359.46741052,1 40349U 14083B   23359.46741052 -.00000021  00000-0  00000-0 0    15,2 40349   0.0458   9.4176 0002890 250.5270 100.0220  5.00115534164657,0.0458,0.000289,5.00115534,9.4176,250.527,100.022
40349,O3B FM11,MEO,23359.66730109,1 40349U 14083B   23359.66730109 -.00000021  00000-0  00000-0 0    18,2 40349   0.0458   9.4128 0002889 250.7185  99.8352  5.00115532164658,0.0458,0.0002889,5.00115532,9.4128,250.7185,99.8352
40349,O3B FM11,MEO,23360.06708203,1 40349U 14083B   23360.06708203 -.00000022  00000-0  00000-0 0    15,2 40349   0.0458   9.4234 0002893 250.7647  99.7782  5.00115541164672,0.0458,0.0002893,5.00115541,9.4234,250.7647,99.7782
40349,O3B FM11,MEO,23361.46631560,1 40349U 14083B   23361.46631560 -.00000024  00000-0  00000-0 0    13,2 40349   0.0459   9.4554 0002886 252.0366  98.4737  5.00115565164743,0.0459,0.0002886,5.00115565,9.4554,252.0366,98.4737
40349,O3B FM11,MEO,23362.46576814,1 40349U 14083B   23362.46576814 -.00000024  00000-0  00000-0 0    14,2 40349   0.0459   9.4689 0002883 252.8850  97.6115  5.00115586164794,0.0459,0.0002883,5.00115586,9.4689,252.885,97.6115
40349,O3B FM11,MEO,23362.66565874,1 40349U 14083B   23362.66565874 -.00000024  00000-0  00000-0 0    10,2 40349   0.0459   9.4711 0002883 253.0541  97.4401  5.00115583164805,0.0459,0.0002883,5.00115583,9.4711,253.0541,97.4401
40349,O3B FM11,MEO,23363.06543985,1 40349U 14083B   23363.06543985 -.00000024  00000-0  00000-0 0    14,2 40349   0.0459   9.4710 0002881 253.3995  97.0947  5.00115585164834,0.0459,0.0002881,5.00115585,9.471,253.3995,97.0947
40349,O3B FM11,MEO,23363.66511159,1 40349U 14083B   23363.66511159 -.00000023  00000-0  00000-0 0    17,2 40349   0.0460   9.4748 0002878 253.9844  96.5061  5.00115585164866,0.046,0.0002878,5.00115585,9.4748,253.9844,96.5061
40349,O3B FM11,MEO,23364.46467350,1 40349U 14083B   23364.46467350 -.00000022  00000-0  00000-0 0    18,2 40349   0.0460   9.4782 0002873 254.7604  95.7267  5.00115619164904,0.046,0.0002873,5.00115619,9.4782,254.7604,95.7267
40349,O3B FM11,MEO,23364.66456428,1 40349U 14083B   23364.66456428 -.00000022  00000-0  00000-0 0    14,2 40349   0.0460   9.4764 0002873 254.9393  95.5496  5.00115604164918,0.046,0.0002873,5.00115604,9.4764,254.9393,95.5496
40349,O3B FM11,MEO,24001.46357981,1 40349U 14083B   24001.46357981 -.00000018  00000-0  00000-0 0    10\,2 40349   0.0461   9.5130 0002863 256.4906  93.9623  5.00115594165006,0.0461,0.0002863,5.00115594,9.513,256.4906,93.9623
40349,O3B FM11,MEO,24002.66292333,1 40349U 14083B   24002.66292333 -.00000015  00000-0  00000-0 0    19\,2 40349   0.0462   9.4808 0002855 257.7705  92.7151  5.00115604165061,0.0462,0.0002855,5.00115604,9.4808,257.7705,92.7151
40349,O3B FM11,MEO,24003.46248592,1 40349U 14083B   24003.46248592 -.00000013  00000-0  00000-0 0    14\,2 40349   0.0462   9.4986 0002851 258.5449  91.9234  5.00115590165100,0.0462,0.0002851,5.0011559,9.4986,258.5449,91.9234
40349,O3B FM11,MEO,24004.46193895,1 40349U 14083B   24004.46193895 -.00000011  00000-0  00000-0 0    18\,2 40349   0.0463   9.4500 0002841 259.7776  90.7398  5.00115591165152,0.0463,0.0002841,5.00115591,9.45,259.7776,90.7398
40349,O3B FM11,MEO,24005.46139210,1 40349U 14083B   24005.46139210 -.00000010  00000-0  00000-0 0    19\,2 40349   0.0463   9.4639 0002834 260.8178  89.6862  5.00115573165205,0.0463,0.0002834,5.00115573,9.4639,260.8178,89.6862
40349,O3B FM11,MEO,24005.86117352,1 40349U 14083B   24005.86117352 -.00000009  00000-0  00000-0 0    14\,2 40349   0.0464   9.4991 0002829 261.4377  89.0312  5.00115550165220,0.0464,0.0002829,5.0011555,9.4991,261.4377,89.0312
40349,O3B FM11,MEO,24006.66073576,1 40349U 14083B   24006.66073576 -.00000008  00000-0  00000-0 0    11\,2 40349   0.0464   9.4559 0002828 262.2625  88.2497  5.00115550165263,0.0464,0.0002828,5.0011555,9.4559,262.2625,88.2497
40349,O3B FM11,MEO,24006.86062623,1 40349U 14083B   24006.86062623 -.00000008  00000-0  00000+0 0  7256\,2 40349   0.0464   9.4544 0002826 262.4733  88.0405  5.00115557165429,0.0464,0.0002826,5.00115557,9.4544,262.4733,88.0405
40349,O3B FM11,MEO,24007.06051685,1 40349U 14083B   24007.06051685 -.00000008  00000-0  00000-0 0    13\,2 40349   0.0465   9.5124 0002824 262.6775  87.7783  5.00115550165283,0.0465,0.0002824,5.0011555,9.5124,262.6775,87.7783
40349,O3B FM11,MEO,24007.66018862,1 40349U 14083B   24007.66018862 -.00000008  00000-0  00000-0 0    19\,2 40349   0.0465   9.5173 0002816 263.2424  87.2085  5.00115537165315,0.0465,0.0002816,5.00115537,9.5173,263.2424,87.2085
40349,O3B FM11,MEO,24008.45975062,1 40349U 14083B   24008.45975062 -.00000008  00000-0  00000-0 0    11\,2 40349   0.0466   9.4862 0002809 263.9559  86.5260  5.00115543165356,0.0466,0.0002809,5.00115543,9.4862,263.9559,86.526
40349,O3B FM11,MEO,24008.65964144,1 40349U 14083B   24008.65964144 -.00000008  00000-0  00000-0 0    12\,2 40349   0.0466   9.5393 0002807 264.0954  86.3332  5.00115517165365,0.0466,0.0002807,5.00115517,9.5393,264.0954,86.3332
40349,O3B FM11,MEO,24009.45920331,1 40349U 14083B   24009.45920331 -.00000008  00000-0  00000-0 0    11\,2 40349   0.0466   9.5459 0002803 264.9218  85.4999  5.00115527165401,0.0466,0.0002803,5.00115527,9.5459,264.9218,85.4999
40349,O3B FM11,MEO,24009.45920349,1 40349U 14083B   24009.45920349 -.00000008  00000-0  00000-0 0    10\,2 40349   0.0466   9.4880 0002803 264.9182  85.5614  5.00115512165407,0.0466,0.0002803,5.00115512,9.488,264.9182,85.5614
40349,O3B FM11,MEO,24010.05887487,1 40349U 14083B   24010.05887487 -.00000009  00000-0  00000-0 0    14\,2 40349   0.0467   9.5743 0002797 265.4167  84.9763  5.00115520165438,0.0467,0.0002797,5.0011552,9.5743,265.4167,84.9763
